[{"OBJECT_NAME":"OBJECT B","OBJECT_ID":"2024-018B","EPOCH":"2026-03-09T23:37:58.932768","MEAN_MOTION":14.43067172,"ECCENTRICITY":0.04162119,"INCLINATION":58.6942,"RA_OF_ASC_NODE":207.6312,"ARG_OF_PERICENTER":352.1605,"MEAN_ANOMALY":7.3044,"EPHEMERIS_TYPE":0,"CLASSIFICATION_TYPE":"U","NORAD_CAT_ID":58850,"ELEMENT_SET_NO":999,"REV_AT_EPOCH":11107,"BSTAR":0.00029384903,"MEAN_MOTION_DOT":2.642e-5,"MEAN_MOTION_DDOT":0},{"OBJECT_NAME":"CZ-6A DEB","OBJECT_ID":"2024-140UA","EPOCH":"2026-03-09T12:38:24.759744","MEAN_MOTION":14.67269756,"ECCENTRICITY":0.00378843,"INCLINATION":88.7675,"RA_OF_ASC_NODE":266.062,"ARG_OF_PERICENTER":216.6479,"MEAN_ANOMALY":143.2146,"EPHEMERIS_TYPE":0,"CLASSIFICATION_TYPE":"U","NORAD_CAT_ID":61313,"ELEMENT_SET_NO":999,"REV_AT_EPOCH":8153,"BSTAR":0.0033442941,"MEAN_MOTION_DOT":0.00019103,"MEAN_MOTION_DDOT":0}]
